OBJECT_NAME,OBJECT_ID,EPOCH,MEAN_MOTION,ECCENTRICITY,INCLINATION,RA_OF_ASC_NODE,ARG_OF_PERICENTER,MEAN_ANOMALY,EPHEMERIS_TYPE,CLASSIFICATION_TYPE,NORAD_CAT_ID,ELEMENT_SET_NO,REV_AT_EPOCH,BSTAR,MEAN_MOTION_DOT,MEAN_MOTION_DDOT
SES-20,2022-123A,2026-06-08T16:18:51.268320,1.00269611,.0001969,0.0351,77.8897,16.1792,304.6181,0,U,53960,999,1344,0,-.85E-6,0
SES-21,2022-123B,2026-06-08T16:10:59.520864,1.00270225,.0000885,0.0261,25.5751,47.4792,295.7474,0,U,53961,999,712,0,.85E-6,0
GALAXY 33 (G-33),2022-128A,2026-06-08T17:53:01.633920,1.00271217,.0001879,0.0135,306.5599,137.8846,307.9610,0,U,54026,999,1365,0,.95E-6,0
GALAXY 34 (G-34),2022-128B,2026-06-08T16:11:29.474016,1.00276523,.0001882,0.0115,328.7845,125.5179,276.6448,0,U,54027,999,1382,0,.74E-6,0
ANGOSAT 2,2022-131A,2026-06-08T13:29:27.062592,1.00271763,.00013372,0.0283,81.7064,30.9456,9.6608,0,U,54033,999,1339,0,.151E-5,0
EUTELSAT HOTBIRD 13F,2022-134A,2026-06-08T15:09:20.644416,1.00270847,.0002151,0.0493,290.2103,70.3531,136.8018,0,U,54048,999,1329,0,.103E-5,0
LDPE-2,2022-144A,2026-06-08T14:13:12.927936,1.00528881,.0001761,5.5914,63.7199,97.2756,143.7925,0,U,54219,999,1175,0,.143E-5,0
EUTELSAT HOTBIRD 13G,2022-146A,2026-06-08T15:09:20.644416,1.00270900,.0001896,0.0484,232.5552,307.7519,317.0491,0,U,54225,999,738,0,.103E-5,0
ZHONGXING-19,2022-148A,2026-06-08T17:34:48.381888,1.00271663,.0002385,0.0212,280.2630,183.2465,220.5035,0,U,54230,999,1329,0,-.65E-6,0
GALAXY 31 (G-31),2022-153A,2026-06-08T16:13:44.258016,1.00271958,.0001315,0.0165,267.3075,169.6015,302.5940,0,U,54243,999,704,0,.29E-6,0
GALAXY 32 (G-32),2022-153B,2026-06-08T12:56:57.723072,1.00271189,.00022122,0.0090,327.2332,70.5105,322.4310,0,U,54244,999,1305,0,-.158E-5,0
EUTELSAT 10B,2022-157A,2026-06-08T18:33:45.736992,1.00268271,.0002013,0.0622,101.3415,11.2050,73.0637,0,U,54259,999,1294,0,.84E-6,0
GALAXY 35 (G-35),2022-170A,2026-06-08T14:53:39.517728,1.00271398,.0002082,0.0282,93.5342,347.4986,306.2975,0,U,54741,999,1280,0,-.146E-5,0
GALAXY 36 (G-36),2022-170B,2026-06-08T14:40:14.191104,1.00271090,.00027,0.0144,154.5476,288.3892,305.1285,0,U,54742,999,1268,0,-.169E-5,0
METEOSAT-12 (MTG-I1),2022-170C,2026-06-08T18:30:46.024992,1.00271628,.0003385,0.7285,21.4828,71.1805,81.7589,0,U,54743,999,1289,0,.8E-7,0
SHIJIAN-23 (SJ-23),2023-002A,2026-06-08T18:41:48.573024,1.00089818,.0003834,3.6949,78.4182,275.0179,337.8292,0,U,55131,999,1242,0,-.189E-5,0
APSTAR-6E,2023-005A,2026-06-08T15:10:50.553120,1.00271697,.00009926,0.0214,248.8845,305.5776,64.2622,0,U,55239,999,1860,0,-.301E-5,0
USA 342,2023-008A,2026-06-07T06:41:44.493216,1.00272218,.0000352,0.0030,157.3806,136.6587,85.8740,0,U,55263,999,1241,0,.152E-5,0
LDPE-3A,2023-008B,2026-06-08T14:44:28.784256,0.99146573,.0001161,2.3243,81.7700,52.1469,269.9340,0,U,55264,999,1172,0,-.98E-6,0
ELEKTRO-L 4,2023-016A,2026-06-07T19:51:54.937152,1.00272645,.00007709,0.0725,178.4245,358.9962,182.5883,0,U,55506,999,1224,0,-.43E-6,0
AMAZONAS NEXUS,2023-017A,2026-06-08T13:05:34.395936,1.00269716,.0005135,0.0356,30.7430,32.4463,329.1618,0,U,55508,999,695,0,-.266E-5,0
ZHONGXING-26,2023-023A,2026-06-08T19:06:40.279392,1.00269750,.0004059,0.0661,71.5230,14.9674,222.4710,0,U,55686,999,1214,0,-.337E-5,0
LUCH-5X (OLYMP-K 2),2023-031A,2026-06-08T18:34:03.715104,1.00268192,.000096,0.0259,56.2873,162.3066,19.0496,0,U,55841,999,1185,0,.5E-6,0
GAOFEN-13 02,2023-036A,2026-06-08T19:12:54.679968,1.00272984,.0004165,1.0193,359.9882,340.1073,353.6132,0,U,55912,999,1200,0,-.203E-5,0
SES-18,2023-038A,2026-06-08T14:59:37.819392,1.00284726,.0000692,0.0336,278.2782,230.1210,230.4353,0,U,55970,999,1201,0,-.87E-6,0
SES-19,2023-038B,2026-06-08T17:52:31.683360,1.00271713,.0001698,0.0201,305.2461,136.8936,308.2251,0,U,55971,999,1200,0,.104E-5,0
INTELSAT 40E (IS-40E),2023-052A,2026-06-08T14:39:36.748800,1.00268274,.0002052,0.0136,332.2513,151.9340,261.7112,0,U,56174,999,1173,0,0,0
VIASAT-3 F1,2023-060A,2026-06-08T14:40:14.191104,1.00269372,.0000867,0.0237,324.5847,93.2303,330.2535,0,U,56370,999,1134,0,0,0
ARCTURUS,2023-060B,2026-06-08T20:46:36.486048,1.00271923,.0002267,2.7550,80.0453,44.1065,157.2225,0,U,56371,999,1137,0,-.46E-6,0
GS-1,2023-060C,2026-06-08T15:31:07.689792,1.00277054,.0004126,2.7050,79.9310,279.9950,219.1575,0,U,56372,999,745,0,-.208E-5,0
BEIDOU-3 G4,2023-066A,2026-06-08T19:10:54.871680,1.00266602,.0004412,0.4971,329.1915,170.2709,185.4123,0,U,56564,999,1130,0,-.266E-5,0
ARABSAT-7B (BADR-8),2023-075A,2026-06-08T17:46:34.209408,1.00272615,.0004728,0.0770,28.9699,354.3388,166.4707,0,U,56757,999,1103,0,.161E-5,0
