SES-20                  
1 53960U 22123A   26159.67976005 -.00000085  00000+0  00000+0 0  9998
2 53960   0.0351  77.8897 0001969  16.1792 304.6181  1.00269611 13442
SES-21                  
1 53961U 22123B   26159.67430001  .00000085  00000+0  00000+0 0  9999
2 53961   0.0261  25.5751 0000885  47.4792 295.7474  1.00270225  7121
GALAXY 33 (G-33)        
1 54026U 22128A   26159.74515780  .00000095  00000+0  00000+0 0  9994
2 54026   0.0135 306.5599 0001879 137.8846 307.9610  1.00271217 13659
GALAXY 34 (G-34)        
1 54027U 22128B   26159.67464669  .00000074  00000+0  00000+0 0  9993
2 54027   0.0115 328.7845 0001882 125.5179 276.6448  1.00276523 13820
ANGOSAT 2               
1 54033U 22131A   26159.56211878  .00000151  00000+0  00000+0 0  9990
2 54033   0.0283  81.7064 0001337  30.9456   9.6608  1.00271763 13399
EUTELSAT HOTBIRD 13F    
1 54048U 22134A   26159.63148894  .00000103  00000+0  00000+0 0  9991
2 54048   0.0493 290.2103 0002151  70.3531 136.8018  1.00270847 13295
LDPE-2                  
1 54219U 22144A   26159.59251074  .00000143  00000+0  00000+0 0  9996
2 54219   5.5914  63.7199 0001761  97.2756 143.7925  1.00528881 11751
EUTELSAT HOTBIRD 13G    
1 54225U 22146A   26159.63148894  .00000103  00000+0  00000+0 0  9991
2 54225   0.0484 232.5552 0001896 307.7519 317.0491  1.00270900  7388
ZHONGXING-19            
1 54230U 22148A   26159.73250442 -.00000065  00000+0  00000+0 0  9991
2 54230   0.0212 280.2630 0002385 183.2465 220.5035  1.00271663 13297
GALAXY 31 (G-31)        
1 54243U 22153A   26159.67620669  .00000029  00000+0  00000+0 0  9995
2 54243   0.0165 267.3075 0001315 169.6015 302.5940  1.00271958  7047
GALAXY 32 (G-32)        
1 54244U 22153B   26159.53955698 -.00000158  00000+0  00000+0 0  9998
2 54244   0.0090 327.2332 0002212  70.5105 322.4310  1.00271189 13050
EUTELSAT 10B            
1 54259U 22157A   26159.77344603  .00000084  00000+0  00000+0 0  9999
2 54259   0.0622 101.3415 0002013  11.2050  73.0637  1.00268271 12946
GALAXY 35 (G-35)        
1 54741U 22170A   26159.62059627 -.00000146  00000+0  00000+0 0  9993
2 54741   0.0282  93.5342 0002082 347.4986 306.2975  1.00271398 12808
GALAXY 36 (G-36)        
1 54742U 22170B   26159.61127536 -.00000169  00000+0  00000+0 0  9993
2 54742   0.0144 154.5476 0002700 288.3892 305.1285  1.00271090 12685
METEOSAT-12 (MTG-I1)    
1 54743U 22170C   26159.77136603  .00000008  00000+0  00000+0 0  9997
2 54743   0.7285  21.4828 0003385  71.1805  81.7589  1.00271628 12898
SHIJIAN-23 (SJ-23)      
1 55131U 23002A   26159.77903441 -.00000189  00000+0  00000+0 0  9997
2 55131   3.6949  78.4182 0003834 275.0179 337.8292  1.00089818 12425
APSTAR-6E               
1 55239U 23005A   26159.63252955 -.00000301  00000+0  00000+0 0  9997
2 55239   0.0214 248.8845 0000992 305.5776  64.2622  1.00271697 18605
USA 342                 
1 55263U 23008A   26158.27898719  .00000152  00000+0  00000+0 0  9993
2 55263   0.0030 157.3806 0000352 136.6587  85.8740  1.00272218 12415
LDPE-3A                 
1 55264U 23008B   26159.61422204 -.00000098  00000+0  00000+0 0  9995
2 55264   2.3243  81.7700 0001161  52.1469 269.9340  0.99146573 11725
ELEKTRO-L 4             
1 55506U 23016A   26158.82771918 -.00000043  00000+0  00000+0 0  9994
2 55506   0.0725 178.4245 0000770 358.9962 182.5883  1.00272645 12245
AMAZONAS NEXUS          
1 55508U 23017A   26159.54553699 -.00000266  00000+0  00000+0 0  9998
2 55508   0.0356  30.7430 0005135  32.4463 329.1618  1.00269716  6954
ZHONGXING-26            
1 55686U 23023A   26159.79629953 -.00000337  00000+0  00000+0 0  9995
2 55686   0.0661  71.5230 0004059  14.9674 222.4710  1.00269750 12148
LUCH-5X (OLYMP-K 2)     
1 55841U 23031A   26159.77365411  .00000050  00000+0  00000+0 0  9992
2 55841   0.0259  56.2873 0000960 162.3066  19.0496  1.00268192 11854
GAOFEN-13 02            
1 55912U 23036A   26159.80063287 -.00000203  00000+0  00000+0 0  9997
2 55912   1.0193 359.9882 0004165 340.1073 353.6132  1.00272984 12005
SES-18                  
1 55970U 23038A   26159.62474328 -.00000087  00000+0  00000+0 0  9995
2 55970   0.0336 278.2782 0000692 230.1210 230.4353  1.00284726 12016
SES-19                  
1 55971U 23038B   26159.74481115  .00000104  00000+0  00000+0 0  9990
2 55971   0.0201 305.2461 0001698 136.8936 308.2251  1.00271713 12009
INTELSAT 40E (IS-40E)   
1 56174U 23052A   26159.61084200  .00000000  00000+0  00000+0 0  9997
2 56174   0.0136 332.2513 0002052 151.9340 261.7112  1.00268274 11738
VIASAT-3 F1             
1 56370U 23060A   26159.61127536  .00000000  00000+0  00000+0 0  9994
2 56370   0.0237 324.5847 0000867  93.2303 330.2535  1.00269372 11349
ARCTURUS                
1 56371U 23060B   26159.86570007 -.00000046  00000+0  00000+0 0  9998
2 56371   2.7550  80.0453 0002267  44.1065 157.2225  1.00271923 11371
GS-1                    
1 56372U 23060C   26159.64661678 -.00000208  00000+0  00000+0 0  9990
2 56372   2.7050  79.9310 0004126 279.9950 219.1575  1.00277054  7454
BEIDOU-3 G4             
1 56564U 23066A   26159.79924620 -.00000266  00000+0  00000+0 0  9998
2 56564   0.4971 329.1915 0004412 170.2709 185.4123  1.00266602 11308
ARABSAT-7B (BADR-8)     
1 56757U 23075A   26159.74067372  .00000161  00000+0  00000+0 0  9992
2 56757   0.0770  28.9699 0004728 354.3388 166.4707  1.00272615 11034
